[ {"OBJECT_NAME": "GAOFEN-10R", "NORAD_CAT_ID": 44622, "MEAN_MOTION": 14.83167892, "ECCENTRICITY": 0.0008243, "INCLINATION": 98.0401, "RA_OF_ASC_NODE": 24.9509, "ARG_OF_PERICENTER": 97.2868, "MEAN_ANOMALY": 262.9282, "BSTAR": 0.00024608, "EPOCH": "2026-03-13T00:06:11"}, {"OBJECT_NAME": "GAOFEN-5 02", "NORAD_CAT_ID": 49122, "MEAN_MOTION": 14.57724529, "ECCENTRICITY": 1.25e-05, "INCLINATION": 98.2671, "RA_OF_ASC_NODE": 146.9344, "ARG_OF_PERICENTER": 295.3359, "MEAN_ANOMALY": 64.7827, "BSTAR": 2.1645e-05, "EPOCH": "2026-03-12T22:57:34"}, {"OBJECT_NAME": "KONDOR-FKA NO. 1", "NORAD_CAT_ID": 56756, "MEAN_MOTION": 15.19772289, "ECCENTRICITY": 0.000173, "INCLINATION": 97.4394, "RA_OF_ASC_NODE": 262.4533, "ARG_OF_PERICENTER": 84.6258, "MEAN_ANOMALY": 275.5174, "BSTAR": 0.00035188000000000005, "EPOCH": "2026-03-07T10:13:03"}, {"OBJECT_NAME": "KONDOR-FKA NO. 2", "NORAD_CAT_ID": 62138, "MEAN_MOTION": 15.19708149, "ECCENTRICITY": 0.0001651, "INCLINATION": 97.4355, "RA_OF_ASC_NODE": 276.8243, "ARG_OF_PERICENTER": 85.4428, "MEAN_ANOMALY": 274.6995, "BSTAR": 0.0004156, "EPOCH": "2026-03-12T23:33:10"}, {"OBJECT_NAME": "SPOT 6", "NORAD_CAT_ID": 38755, "MEAN_MOTION": 14.58543816, "ECCENTRICITY": 0.0001517, "INCLINATION": 98.2211, "RA_OF_ASC_NODE": 140.346, "ARG_OF_PERICENTER": 92.3727, "MEAN_ANOMALY": 267.7646, "BSTAR": 2.3367e-05, "EPOCH": "2026-03-12T22:46:57"}, {"OBJECT_NAME": "SPOT 7", "NORAD_CAT_ID": 40053, "MEAN_MOTION": 14.60865108, "ECCENTRICITY": 0.0001443, "INCLINATION": 98.0737, "RA_OF_ASC_NODE": 136.8839, "ARG_OF_PERICENTER": 98.9137, "MEAN_ANOMALY": 261.2227, "BSTAR": 9.229000000000001e-05, "EPOCH": "2026-03-12T22:50:17"}, {"OBJECT_NAME": "WORLDVIEW-3 (WV-3)", "NORAD_CAT_ID": 40115, "MEAN_MOTION": 14.84843729, "ECCENTRICITY": 1.44e-05, "INCLINATION": 97.8629, "RA_OF_ASC_NODE": 148.0927, "ARG_OF_PERICENTER": 185.9615, "MEAN_ANOMALY": 174.1598, "BSTAR": 0.000147, "EPOCH": "2026-03-12T22:37:37"}, {"OBJECT_NAME": "WORLDVIEW-2 (WV-2)", "NORAD_CAT_ID": 35946, "MEAN_MOTION": 14.37912101, "ECCENTRICITY": 0.0005178, "INCLINATION": 98.4688, "RA_OF_ASC_NODE": 146.7472, "ARG_OF_PERICENTER": 137.2782, "MEAN_ANOMALY": 222.8809, "BSTAR": 7.4586e-05, "EPOCH": "2026-03-12T22:15:59"}, {"OBJECT_NAME": "WORLDVIEW-1 (WV-1)", "NORAD_CAT_ID": 32060, "MEAN_MOTION": 15.24596218, "ECCENTRICITY": 0.0003296, "INCLINATION": 97.3823, "RA_OF_ASC_NODE": 192.9224, "ARG_OF_PERICENTER": 130.7434, "MEAN_ANOMALY": 229.4091, "BSTAR": 0.00036485, "EPOCH": "2026-03-12T18:53:15"}, {"OBJECT_NAME": "NAVSTAR 46 (USA 145)", "NORAD_CAT_ID": 25933, "MEAN_MOTION": 2.00567445, "ECCENTRICITY": 0.0106392, "INCLINATION": 51.5502, "RA_OF_ASC_NODE": 299.7052, "ARG_OF_PERICENTER": 171.887, "MEAN_ANOMALY": 12.7695, "BSTAR": 0.0, "EPOCH": "2026-03-12T07:54:38"}, {"OBJECT_NAME": "NAVSTAR 49 (USA 154)", "NORAD_CAT_ID": 26605, "MEAN_MOTION": 2.00570306, "ECCENTRICITY": 0.0173399, "INCLINATION": 55.5674, "RA_OF_ASC_NODE": 98.8043, "ARG_OF_PERICENTER": 265.6511, "MEAN_ANOMALY": 98.697, "BSTAR": 0.0, "EPOCH": "2026-03-11T16:24:04"}, {"OBJECT_NAME": "NAVSTAR 52 (USA 168)", "NORAD_CAT_ID": 27704, "MEAN_MOTION": 1.94743161, "ECCENTRICITY": 0.0004627, "INCLINATION": 54.8698, "RA_OF_ASC_NODE": 328.8449, "ARG_OF_PERICENTER": 343.01, "MEAN_ANOMALY": 204.2637, "BSTAR": 0.0, "EPOCH": "2026-03-11T13:01:38"}, {"OBJECT_NAME": "NAVSTAR 53 (USA 175)", "NORAD_CAT_ID": 28129, "MEAN_MOTION": 1.92678601, "ECCENTRICITY": 0.000316, "INCLINATION": 54.9721, "RA_OF_ASC_NODE": 26.8461, "ARG_OF_PERICENTER": 314.5189, "MEAN_ANOMALY": 45.4493, "BSTAR": 0.0, "EPOCH": "2026-03-12T12:24:25"}, {"OBJECT_NAME": "NAVSTAR 55 (USA 178)", "NORAD_CAT_ID": 28361, "MEAN_MOTION": 2.00552002, "ECCENTRICITY": 0.0159682, "INCLINATION": 54.7915, "RA_OF_ASC_NODE": 90.8407, "ARG_OF_PERICENTER": 298.7021, "MEAN_ANOMALY": 62.7963, "BSTAR": 0.0, "EPOCH": "2026-03-06T22:19:05"}, {"OBJECT_NAME": "NAVSTAR 63 (USA 203)", "NORAD_CAT_ID": 34661, "MEAN_MOTION": 2.00555673, "ECCENTRICITY": 0.0144943, "INCLINATION": 54.5032, "RA_OF_ASC_NODE": 214.5267, "ARG_OF_PERICENTER": 61.4797, "MEAN_ANOMALY": 119.9013, "BSTAR": 0.0, "EPOCH": "2026-03-12T13:50:04"}]