NAVSTAR 46 (USA 145)    
1 25933U 99055A   26071.32961439 -.00000026  00000+0  00000+0 0  9990
2 25933  51.5502 299.7052 0106392 171.8870  12.7695  2.00567445193634
NAVSTAR 49 (USA 154)    
1 26605U 00071A   26070.68338025  .00000012  00000+0  00000+0 0  9998
2 26605  55.5674  98.8043 0173399 265.6511  98.6970  2.00570306185560
NAVSTAR 52 (USA 168)    
1 27704U 03010A   26070.54280656 -.00000084  00000+0  00000+0 0  9996
2 27704  54.8698 328.8449 0004627 343.0100 204.2637  1.94743161168016
NAVSTAR 53 (USA 175)    
1 28129U 03058A   26071.51696380 -.00000070  00000+0  00000+0 0  9998
2 28129  54.9721  26.8461 0003160 314.5189  45.4493  1.92678601162604
NAVSTAR 55 (USA 178)    
1 28361U 04023A   26065.92992135 -.00000012  00000+0  00000+0 0  9990
2 28361  54.7915  90.8407 0159682 298.7021  62.7963  2.00552002158992
WORLDVIEW-1 (WV-1)      
1 32060U 07041A   26071.78697950  .00008928  00000+0  36485-3 0  9995
2 32060  97.3823 192.9224 0003296 130.7434 229.4091 15.24596218 28196
NAVSTAR 63 (USA 203)    
1 34661U 09014A   26071.57643628  .00000023  00000+0  00000+0 0  9994
2 34661  54.5032 214.5267 0144943  61.4797 119.9013  2.00555673124348
WORLDVIEW-2 (WV-2)      
1 35946U 09055A   26071.92777426  .00000182  00000+0  74586-4 0  9990
2 35946  98.4688 146.7472 0005178 137.2782 222.8809 14.37912101861818
SPOT 6                  
1 38755U 12047A   26071.94927944  .00000063  00000+0  23367-4 0  9999
2 38755  98.2211 140.3460 0001517  92.3727 267.7646 14.58543816719027
SPOT 7                  
1 40053U 14034A   26071.95159310  .00000406  00000+0  92290-4 0  9998
2 40053  98.0737 136.8839 0001443  98.9137 261.2227 14.60865108623085
WORLDVIEW-3 (WV-3)      
1 40115U 14048A   26071.94279580  .00001196  00000+0  14700-3 0  9999
2 40115  97.8629 148.0927 0000144 185.9615 174.1598 14.84843729627627
GAOFEN-10R              
1 44622U 19066A   26072.00430093  .00001954  00000+0  24608-3 0  9997
2 44622  98.0401  24.9509 0008243  97.2868 262.9282 14.83167892348126
GAOFEN-5 02             
1 49122U 21079A   26071.95665432  .00000053  00000+0  21645-4 0  9992
2 49122  98.2671 146.9344 0000125 295.3359  64.7827 14.57724529240060
KONDOR-FKA NO. 1        
1 56756U 23074A   26066.42573583  .00007463  00000+0  35188-3 0  9999
2 56756  97.4394 262.4533 0001730  84.6258 275.5174 15.19772289154233
KONDOR-FKA NO. 2        
1 62138U 24223A   26071.98136966  .00008812  00000+0  41560-3 0  9994
2 62138  97.4355 276.8243 0001651  85.4428 274.6995 15.19708149 71095
